GSAT0212 (GALILEO 16)   
1 41860U 16069B   26094.27589471  .00000029  00000+0  00000+0 0  9994
2 41860  55.4482 103.1246 0004376 336.7977  23.2102  1.70474499 58398
GSAT0213 (GALILEO 17)   
1 41861U 16069C   26088.19090007  .00000042  00000+0  00000+0 0  9996
2 41861  55.4467 103.3008 0005672 296.7743  63.2211  1.70475393 58159
GSAT0214 (GALILEO 18)   
1 41862U 16069D   26093.61621158  .00000029  00000+0  00000+0 0  9992
2 41862  55.4486 103.1435 0004819 302.4917  57.4928  1.70474615 58373
SES-15                  
1 42709U 17026A   26095.24280647  .00000061  00000+0  00000+0 0  9998
2 42709   0.0309 319.9281 0000760  63.9952 127.8662  1.00270997  6706
QZS-2 (MICHIBIKI-2)     
1 42738U 17028A   26095.27195000 -.00000203  00000+0  00000+0 0  9992
2 42738  39.5436 244.2157 0742094 270.6147 276.4746  1.00253447  6899
QZS-3 (MICHIBIKI-3)     
1 42917U 17048A   26095.27099667 -.00000347  00000+0  00000+0 0  9994
2 42917   0.0646 144.1384 0002126 235.1102  38.9211  1.00271169 31523
COSMOS 2522 [GLONASS-M] 
1 42939U 17055A   26087.87961730 -.00000036  00000+0  00000+0 0  9997
2 42939  64.0780 194.6153 0008050 231.2616 128.6626  2.13101664 66262
QZS-4 (MICHIBIKI-4)     
1 42965U 17062A   26094.55887769 -.00000333  00000+0  00000+0 0  9996
2 42965  40.1528 344.4243 0747408 270.4918 279.7143  1.00272817 31064
BEIDOU-3 M1             
1 43001U 17069A   26094.57005692 -.00000040  00000+0  00000+0 0  9999
2 43001  56.6302  65.5072 0012496 313.9385  45.9305  1.86231329 57239
BEIDOU-3 M2             
1 43002U 17069B   26094.50862389 -.00000040  00000+0  00000+0 0  9997
2 43002  56.6293  65.5451 0010172 334.2009  25.7203  1.86230700 57222
GSAT0215 (GALILEO 19)   
1 43055U 17079A   26094.10625773 -.00000008  00000+0  00000+0 0  9990
2 43055  55.0980 223.5434 0000751 277.3476  82.5997  1.70474759 51727
GSAT0216 (GALILEO 20)   
1 43056U 17079B   26092.05111583 -.00000021  00000+0  00000+0 0  9997
2 43056  55.0986 223.5998 0002051 297.7683  62.1536  1.70474829 51709
GSAT0217 (GALILEO 21)   
1 43057U 17079C   26094.03164341 -.00000009  00000+0  00000+0 0  9994
2 43057  55.0959 223.5432 0001888 328.5118  31.4322  1.70474766 51720
GSAT0218 (GALILEO 22)   
1 43058U 17079D   26094.25169759 -.00000008  00000+0  00000+0 0  9996
2 43058  55.0970 223.5349 0002545 284.3710  75.5576  1.70474764 51750
BEIDOU-3 M7             
1 43107U 18003A   26092.63934671 -.00000065  00000+0  00000+0 0  9995
2 43107  54.3956 304.9489 0005115  76.5007 283.5840  1.86232359 55945
BEIDOU-3 M8             
1 43108U 18003B   26092.58514063 -.00000065  00000+0  00000+0 0  9999
2 43108  54.3877 304.9330 0002485 292.7810  67.2205  1.86230868 55950
BEIDOU-3 M4             
1 43207U 18018A   26094.63832819 -.00000040  00000+0  00000+0 0  9998
2 43207  56.5893  65.5716 0007493 355.4871   4.4783  1.86231252 55376
